IRIDIUM 124             
1 42810U 17039H   26116.47028375  .00000088  00000+0  20169-4 0  9994
2 42810  86.4457 311.9998 0002221  89.0802 271.0654 14.43281167467655
IRIDIUM 128             
1 42811U 17039J   26116.51067992 -.00000019  00000+0 -13907-4 0  9996
2 42811  86.3987  46.7453 0002256  80.5690 279.5761 14.34217255462576
IRIDIUM 121             
1 42812U 17039K   26116.46922110  .00000261  00000+0  86179-4 0  9991
2 42812  86.4016  15.2837 0002225  82.3682 277.7767 14.34219677462414
IRIDIUM 133             
1 42955U 17061A   26116.33308711  .00000006  00000+0 -48996-5 0  9999
2 42955  86.3987  46.9358 0002147  85.0911 275.0530 14.34217464447341
IRIDIUM 100             
1 42956U 17061B   26116.32674362  .00000115  00000+0  33870-4 0  9991
2 42956  86.3986  46.8580 0002280  84.6689 275.4767 14.34217452447345
IRIDIUM 122             
1 42957U 17061C   26116.29503175  .00000121  00000+0  36186-4 0  9991
2 42957  86.3988  46.8714 0002294  87.3441 272.8017 14.34217927447344
IRIDIUM 129             
1 42958U 17061D   26116.32040142 -.00000055  00000+0 -26635-4 0  9992
2 42958  86.3987  46.9275 0001834  86.3998 273.7407 14.34217088447365
IRIDIUM 119             
1 42959U 17061E   26116.28868897 -.00000005  00000+0 -90106-5 0  9993
2 42959  86.3987  46.9363 0002119  88.4778 271.6661 14.34217423447373
IRIDIUM 107             
1 42960U 17061F   26116.51702318 -.00000149  00000+0 -60440-4 0  9992
2 42960  86.3989  46.8620 0002368  87.4363 272.7104 14.34217103447411
IRIDIUM 132             
1 42961U 17061G   26116.52336488  .00000042  00000+0  80083-5 0  9991
2 42961  86.3989  46.8388 0002248  85.3161 274.8291 14.34217858447410
IRIDIUM 136             
1 42962U 17061H   26116.27600409 -.00000015  00000+0 -12383-4 0  9990
2 42962  86.3987  46.9488 0002178  87.6367 272.5079 14.34217378447399
IRIDIUM 139             
1 42963U 17061J   26116.28234624  .00000008  00000+0 -40949-5 0  9995
2 42963  86.3990  47.0074 0002214  83.4750 276.6698 14.34217628447400
IRIDIUM 125             
1 42964U 17061K   26116.33942978  .00000003  00000+0 -61425-5 0  9997
2 42964  86.3990  47.0434 0002256  98.0566 262.0886 14.34217541447428
IRIDIUM 135             
1 43070U 17083A   26115.68563867  .00000044  00000+0  86605-5 0  9994
2 43070  86.3988 343.9711 0002191  86.2512 273.8935 14.34217880436629
IRIDIUM 138             
1 43071U 17083B   26116.47846215  .00000004  00000+0 -57539-5 0  9995
2 43071  86.3994 343.3271 0001870  95.1523 264.9886 14.34217544436720
IRIDIUM 116             
1 43072U 17083C   26116.37698262  .00000227  00000+0  73933-4 0  9993
2 43072  86.3983 343.6690 0002414  79.5362 280.6106 14.34211084436744
IRIDIUM 130             
1 43073U 17083D   26115.71735199 -.00000032  00000+0 -18335-4 0  9993
2 43073  86.3992 344.2142 0002311  85.3368 274.8092 14.34217545436591
