[{"OBJECT_NAME":"IRIDIUM 124","OBJECT_ID":"2017-039H","EPOCH":"2026-04-26T11:17:12.516000","MEAN_MOTION":14.43281167,"ECCENTRICITY":0.0002221,"INCLINATION":86.4457,"RA_OF_ASC_NODE":311.9998,"ARG_OF_PERICENTER":89.0802,"MEAN_ANOMALY":271.0654,"EPHEMERIS_TYPE":0,"CLASSIFICATION_TYPE":"U","NORAD_CAT_ID":42810,"ELEMENT_SET_NO":999,"REV_AT_EPOCH":46765,"BSTAR":2.0169e-5,"MEAN_MOTION_DOT":8.8e-7,"MEAN_MOTION_DDOT":0},{"OBJECT_NAME":"IRIDIUM 128","OBJECT_ID":"2017-039J","EPOCH":"2026-04-26T12:15:22.745088","MEAN_MOTION":14.34217255,"ECCENTRICITY":0.0002256,"INCLINATION":86.3987,"RA_OF_ASC_NODE":46.7453,"ARG_OF_PERICENTER":80.569,"MEAN_ANOMALY":279.5761,"EPHEMERIS_TYPE":0,"CLASSIFICATION_TYPE":"U","NORAD_CAT_ID":42811,"ELEMENT_SET_NO":999,"REV_AT_EPOCH":46257,"BSTAR":-1.3907e-5,"MEAN_MOTION_DOT":-1.9e-7,"MEAN_MOTION_DDOT":0},{"OBJECT_NAME":"IRIDIUM 121","OBJECT_ID":"2017-039K","EPOCH":"2026-04-26T11:15:40.703040","MEAN_MOTION":14.34219677,"ECCENTRICITY":0.0002225,"INCLINATION":86.4016,"RA_OF_ASC_NODE":15.2837,"ARG_OF_PERICENTER":82.3682,"MEAN_ANOMALY":277.7767,"EPHEMERIS_TYPE":0,"CLASSIFICATION_TYPE":"U","NORAD_CAT_ID":42812,"ELEMENT_SET_NO":999,"REV_AT_EPOCH":46241,"BSTAR":8.6179e-5,"MEAN_MOTION_DOT":2.61e-6,"MEAN_MOTION_DDOT":0},{"OBJECT_NAME":"IRIDIUM 133","OBJECT_ID":"2017-061A","EPOCH":"2026-04-26T07:59:38.726304","MEAN_MOTION":14.34217464,"ECCENTRICITY":0.0002147,"INCLINATION":86.3987,"RA_OF_ASC_NODE":46.9358,"ARG_OF_PERICENTER":85.0911,"MEAN_ANOMALY":275.053,"EPHEMERIS_TYPE":0,"CLASSIFICATION_TYPE":"U","NORAD_CAT_ID":42955,"ELEMENT_SET_NO":999,"REV_AT_EPOCH":44734,"BSTAR":-4.8996e-6,"MEAN_MOTION_DOT":6.0e-8,"MEAN_MOTION_DDOT":0},{"OBJECT_NAME":"IRIDIUM 100","OBJECT_ID":"2017-061B","EPOCH":"2026-04-26T07:50:30.648768","MEAN_MOTION":14.34217452,"ECCENTRICITY":0.000228,"INCLINATION":86.3986,"RA_OF_ASC_NODE":46.858,"ARG_OF_PERICENTER":84.6689,"MEAN_ANOMALY":275.4767,"EPHEMERIS_TYPE":0,"CLASSIFICATION_TYPE":"U","NORAD_CAT_ID":42956,"ELEMENT_SET_NO":999,"REV_AT_EPOCH":44734,"BSTAR":3.387e-5,"MEAN_MOTION_DOT":1.15e-6,"MEAN_MOTION_DDOT":0},{"OBJECT_NAME":"IRIDIUM 122","OBJECT_ID":"2017-061C","EPOCH":"2026-04-26T07:04:50.743200","MEAN_MOTION":14.34217927,"ECCENTRICITY":0.0002294,"INCLINATION":86.3988,"RA_OF_ASC_NODE":46.8714,"ARG_OF_PERICENTER":87.3441,"MEAN_ANOMALY":272.8017,"EPHEMERIS_TYPE":0,"CLASSIFICATION_TYPE":"U","NORAD_CAT_ID":42957,"ELEMENT_SET_NO":999,"REV_AT_EPOCH":44734,"BSTAR":3.6186e-5,"MEAN_MOTION_DOT":1.21e-6,"MEAN_MOTION_DDOT":0},{"OBJECT_NAME":"IRIDIUM 129","OBJECT_ID":"2017-061D","EPOCH":"2026-04-26T07:41:22.682688","MEAN_MOTION":14.34217088,"ECCENTRICITY":0.0001834,"INCLINATION":86.3987,"RA_OF_ASC_NODE":46.9275,"ARG_OF_PERICENTER":86.3998,"MEAN_ANOMALY":273.7407,"EPHEMERIS_TYPE":0,"CLASSIFICATION_TYPE":"U","NORAD_CAT_ID":42958,"ELEMENT_SET_NO":999,"REV_AT_EPOCH":44736,"BSTAR":-2.6635e-5,"MEAN_MOTION_DOT":-5.5e-7,"MEAN_MOTION_DDOT":0},{"OBJECT_NAME":"IRIDIUM 119","OBJECT_ID":"2017-061E","EPOCH":"2026-04-26T06:55:42.727008","MEAN_MOTION":14.34217423,"ECCENTRICITY":0.0002119,"INCLINATION":86.3987,"RA_OF_ASC_NODE":46.9363,"ARG_OF_PERICENTER":88.4778,"MEAN_ANOMALY":271.6661,"EPHEMERIS_TYPE":0,"CLASSIFICATION_TYPE":"U","NORAD_CAT_ID":42959,"ELEMENT_SET_NO":999,"REV_AT_EPOCH":44737,"BSTAR":-9.0106e-6,"MEAN_MOTION_DOT":-5.0e-8,"MEAN_MOTION_DDOT":0},{"OBJECT_NAME":"IRIDIUM 107","OBJECT_ID":"2017-061F","EPOCH":"2026-04-26T12:24:30.802752","MEAN_MOTION":14.34217103,"ECCENTRICITY":0.0002368,"INCLINATION":86.3989,"RA_OF_ASC_NODE":46.862,"ARG_OF_PERICENTER":87.4363,"MEAN_ANOMALY":272.7104,"EPHEMERIS_TYPE":0,"CLASSIFICATION_TYPE":"U","NORAD_CAT_ID":42960,"ELEMENT_SET_NO":999,"REV_AT_EPOCH":44741,"BSTAR":-6.044e-5,"MEAN_MOTION_DOT":-1.49e-6,"MEAN_MOTION_DDOT":0},{"OBJECT_NAME":"IRIDIUM 132","OBJECT_ID":"2017-061G","EPOCH":"2026-04-26T12:33:38.725632","MEAN_MOTION":14.34217858,"ECCENTRICITY":0.0002248,"INCLINATION":86.3989,"RA_OF_ASC_NODE":46.8388,"ARG_OF_PERICENTER":85.3161,"MEAN_ANOMALY":274.8291,"EPHEMERIS_TYPE":0,"CLASSIFICATION_TYPE":"U","NORAD_CAT_ID":42961,"ELEMENT_SET_NO":999,"REV_AT_EPOCH":44741,"BSTAR":8.0083e-6,"MEAN_MOTION_DOT":4.2e-7,"MEAN_MOTION_DDOT":0},{"OBJECT_NAME":"IRIDIUM 136","OBJECT_ID":"2017-061H","EPOCH":"2026-04-26T06:37:26.753376","MEAN_MOTION":14.34217378,"ECCENTRICITY":0.0002178,"INCLINATION":86.3987,"RA_OF_ASC_NODE":46.9488,"ARG_OF_PERICENTER":87.6367,"MEAN_ANOMALY":272.5079,"EPHEMERIS_TYPE":0,"CLASSIFICATION_TYPE":"U","NORAD_CAT_ID":42962,"ELEMENT_SET_NO":999,"REV_AT_EPOCH":44739,"BSTAR":-1.2383e-5,"MEAN_MOTION_DOT":-1.5e-7,"MEAN_MOTION_DDOT":0},{"OBJECT_NAME":"IRIDIUM 139","OBJECT_ID":"2017-061J","EPOCH":"2026-04-26T06:46:34.715136","MEAN_MOTION":14.34217628,"ECCENTRICITY":0.0002214,"INCLINATION":86.399,"RA_OF_ASC_NODE":47.0074,"ARG_OF_PERICENTER":83.475,"MEAN_ANOMALY":276.6698,"EPHEMERIS_TYPE":0,"CLASSIFICATION_TYPE":"U","NORAD_CAT_ID":42963,"ELEMENT_SET_NO":999,"REV_AT_EPOCH":44740,"BSTAR":-4.0949e-6,"MEAN_MOTION_DOT":8.0e-8,"MEAN_MOTION_DDOT":0},{"OBJECT_NAME":"IRIDIUM 125","OBJECT_ID":"2017-061K","EPOCH":"2026-04-26T08:08:46.732992","MEAN_MOTION":14.34217541,"ECCENTRICITY":0.0002256,"INCLINATION":86.399,"RA_OF_ASC_NODE":47.0434,"ARG_OF_PERICENTER":98.0566,"MEAN_ANOMALY":262.0886,"EPHEMERIS_TYPE":0,"CLASSIFICATION_TYPE":"U","NORAD_CAT_ID":42964,"ELEMENT_SET_NO":999,"REV_AT_EPOCH":44742,"BSTAR":-6.1425e-6,"MEAN_MOTION_DOT":3.0e-8,"MEAN_MOTION_DDOT":0},{"OBJECT_NAME":"IRIDIUM 135","OBJECT_ID":"2017-083A","EPOCH":"2026-04-25T16:27:19.181088","MEAN_MOTION":14.3421788,"ECCENTRICITY":0.00021911,"INCLINATION":86.3988,"RA_OF_ASC_NODE":343.9711,"ARG_OF_PERICENTER":86.2512,"MEAN_ANOMALY":273.8935,"EPHEMERIS_TYPE":0,"CLASSIFICATION_TYPE":"U","NORAD_CAT_ID":43070,"ELEMENT_SET_NO":999,"REV_AT_EPOCH":43662,"BSTAR":8.660516e-6,"MEAN_MOTION_DOT":4.4e-7,"MEAN_MOTION_DDOT":0},{"OBJECT_NAME":"IRIDIUM 138","OBJECT_ID":"2017-083B","EPOCH":"2026-04-26T11:28:59.129760","MEAN_MOTION":14.34217544,"ECCENTRICITY":0.000187,"INCLINATION":86.3994,"RA_OF_ASC_NODE":343.3271,"ARG_OF_PERICENTER":95.1523,"MEAN_ANOMALY":264.9886,"EPHEMERIS_TYPE":0,"CLASSIFICATION_TYPE":"U","NORAD_CAT_ID":43071,"ELEMENT_SET_NO":999,"REV_AT_EPOCH":43672,"BSTAR":-5.7539e-6,"MEAN_MOTION_DOT":4.0e-8,"MEAN_MOTION_DDOT":0},{"OBJECT_NAME":"IRIDIUM 116","OBJECT_ID":"2017-083C","EPOCH":"2026-04-26T09:02:51.298368","MEAN_MOTION":14.34211084,"ECCENTRICITY":0.0002414,"INCLINATION":86.3983,"RA_OF_ASC_NODE":343.669,"ARG_OF_PERICENTER":79.5362,"MEAN_ANOMALY":280.6106,"EPHEMERIS_TYPE":0,"CLASSIFICATION_TYPE":"U","NORAD_CAT_ID":43072,"ELEMENT_SET_NO":999,"REV_AT_EPOCH":43674,"BSTAR":7.3933e-5,"MEAN_MOTION_DOT":2.27e-6,"MEAN_MOTION_DDOT":0},{"OBJECT_NAME":"IRIDIUM 130","OBJECT_ID":"2017-083D","EPOCH":"2026-04-25T17:12:59.211936","MEAN_MOTION":14.34217545,"ECCENTRICITY":0.00023119,"INCLINATION":86.3992,"RA_OF_ASC_NODE":344.2142,"ARG_OF_PERICENTER":85.3368,"MEAN_ANOMALY":274.8092,"EPHEMERIS_TYPE":0,"CLASSIFICATION_TYPE":"U","NORAD_CAT_ID":43073,"ELEMENT_SET_NO":999,"REV_AT_EPOCH":43659,"BSTAR":-1.8334869e-5,"MEAN_MOTION_DOT":-3.2e-7,"MEAN_MOTION_DDOT":0}]
